STARLINK-1730           
1 46563U 20070AH  23265.21322523  .00012626  00000+0  86472-3 0  9997
2 46563  53.0532 234.5275 0001394  94.7798 265.3350 15.06410584164226
STARLINK-1733           
1 46564U 20070AJ  23264.33226938  .00021593  00000+0  14656-2 0  9990
2 46564  53.0527 238.4815 0001407 102.3825 257.7322 15.06361513164081
STARLINK-1735           
1 46565U 20070AK  23265.30538156  .00017849  00000+0  12137-2 0  9998
2 46565  53.0526 234.1128 0001412  93.2553 266.8597 15.06413484163925
STARLINK-1740           
1 46566U 20070AL  23265.22429112  .00014378  00000+0  98202-3 0  9993
2 46566  53.0531 234.4777 0001287  93.5508 266.5629 15.06406005163898
STARLINK-1741           
1 46567U 20070AM  23265.18743074  .00017913  00000+0  12183-2 0  9996
2 46567  53.0532 234.6406 0001674  93.5096 266.6084 15.06403900164217
STARLINK-1747           
1 46569U 20070AP  23265.20217776  .00011179  00000+0  76858-3 0  9994
2 46569  53.0539 234.5747 0001566  99.3423 260.7744 15.06379965163918
STARLINK-1748           
1 46570U 20070AQ  23265.14481141  .00018969  00000+0  72672-3 0  9992
2 46570  53.0306 199.2502 0001608  19.0134 341.0924 15.26575190164715
STARLINK-1531           
1 46572U 20070AS  23265.37261351  .00019056  00000+0  12948-2 0  9995
2 46572  53.0538 253.7960 0001183 101.4703 258.6419 15.06397196163979
STARLINK-1660           
1 46574U 20070AU  23265.20353475  .00024662  00000+0  16666-2 0  9998
2 46574  53.0529 239.5688 0001441  83.9833 276.1320 15.06447634164144
STARLINK-1675           
1 46575U 20070AV  23265.12661617  .00020680  00000+0  14026-2 0  9994
2 46575  53.0537 214.9143 0001508  96.0279 264.0882 15.06413778164488
STARLINK-1677           
1 46576U 20070AW  23265.19618166  .00022712  00000+0  15378-2 0  9992
2 46576  53.0534 239.6023 0001434  91.0097 269.1057 15.06421581164142
STARLINK-1682           
1 46577U 20070AX  23265.22566846  .00018696  00000+0  12701-2 0  9997
2 46577  53.0538 239.4706 0001328  91.8308 268.2833 15.06418248164146
STARLINK-1683           
1 46578U 20070AY  23265.20676607 -.00000100  00000+0  12187-4 0  9995
2 46578  53.0548 224.6016 0001431  93.6992 266.4161 15.06399509164054
STARLINK-1705           
1 46579U 20070AZ  23265.21091883  .00018566  00000+0  12613-2 0  9990
2 46579  53.0536 239.5356 0001430  94.5685 265.5467 15.06421242164129
STARLINK-1708           
1 46580U 20070BA  23265.18880506  .00011949  00000+0  81937-3 0  9990
2 46580  53.0530 239.6373 0001303  97.9821 262.1316 15.06414740164157
STARLINK-1712           
1 46581U 20070BB  23265.22059022  .00021633  00000+0  14668-2 0  9994
2 46581  53.0537 234.4931 0001382 113.7365 246.3769 15.06398980164215
STARLINK-1728           
1 46582U 20070BC  23265.40488763  .00022823  00000+0  15446-2 0  9990
2 46582  53.0544 233.6663 0001562  93.1268 266.9900 15.06436742164247
STARLINK-1729           
1 46583U 20070BD  23265.25561497  .00018433  00000+0  12535-2 0  9998
2 46583  53.0539 254.3378 0001102  79.8364 280.2750 15.06389732163958
STARLINK-1732           
1 46584U 20070BE  23265.14317782  .00001551  00000+0  12301-3 0  9998
2 46584  53.0532 234.8400 0001376  94.3100 265.8046 15.06398867163893
STARLINK-1736           
1 46585U 20070BF  23265.22702474  .00018182  00000+0  12358-2 0  9993
2 46585  53.0539 234.4541 0001400  93.9068 266.2081 15.06417825163912
STARLINK-1737           
1 46586U 20070BG  23265.21689628  .00007417  00000+0  51634-3 0  9998
2 46586  53.0535 234.5095 0001270  97.2307 262.8827 15.06394392163892
STARLINK-1746           
1 46588U 20070BJ  23264.40231109  .00023508  00000+0  15937-2 0  9991
2 46588  53.0532 238.1662 0001869  99.2029 260.9171 15.06355494164092
STARLINK-1749           
1 46589U 20070BK  23265.32378829  .00002872  00000+0  21166-3 0  9998
2 46589  53.0530 234.0286 0001373  84.7729 275.3417 15.06395256164233
STARLINK-1755           
1 46591U 20070BM  23264.31754813  .00016744  00000+0  11409-2 0  9991
2 46591  53.0539 238.5447 0001493  87.2977 272.8183 15.06380780163135
STARLINK-1715           
1 46671U 20073B   23265.40768972  .00013750  00000+0  93974-3 0  9997
2 46671  53.0547 323.8954 0001473  90.3847 269.7310 15.06417013161992
STARLINK-1716           
1 46672U 20073C   23265.42470860  .00020028  00000+0  13587-2 0  9993
2 46672  53.0545 318.5787 0001505  85.1437 274.9724 15.06424780162075
STARLINK-1717           
1 46673U 20073D   23264.47790952  .00022868  00000+0  15497-2 0  9991
2 46673  53.0543 337.9532 0001397  70.9887 289.1254 15.06386200161717
STARLINK-1718           
1 46674U 20073E   23265.38416111  .00019311  00000+0  13115-2 0  9999
2 46674  53.0542 318.7612 0001522 102.4051 257.7108 15.06408205162065
STARLINK-1720           
1 46675U 20073F   23265.38046324 -.00003416  00000+0 -21055-3 0  9999
2 46675  53.0543 318.7760 0001357  91.3197 268.7948 15.06394527162069
STARLINK-1766           
1 46677U 20073H   23265.44313740  .00017898  00000+0  12166-2 0  9996
2 46677  53.0544 318.4961 0001487  79.7869 280.3287 15.06424185162073
STARLINK-1773           
1 46679U 20073K   23265.31596911  .00009170  00000+0  63362-3 0  9996
2 46679  53.0538 299.0656 0001397  85.8420 274.2729 15.06406339162348
STARLINK-1774           
1 46680U 20073L   23265.45097311  .00020886  00000+0  14160-2 0  9991
2 46680  53.0539 333.4620 0001406  81.2869 278.8279 15.06424027161863
STARLINK-1775           
1 46681U 20073M   23265.42149254  .00011363  00000+0  78041-3 0  9992
2 46681  53.0555 333.5926 0001832 111.5550 248.5634 15.06404431161854
STARLINK-1776           
1 46682U 20073N   23264.91651608  .00016629  00000+0  11321-2 0  9994
2 46682  53.0543 335.8605 0001492  88.5755 271.5405 15.06417219161897
STARLINK-1780           
1 46684U 20073Q   23265.43576486  .00016493  00000+0  11229-2 0  9990
2 46684  53.0550 318.5298 0001581  92.4204 267.6966 15.06421947162077
STARLINK-1781           
1 46685U 20073R   23264.89345402  .00021196  00000+0  14375-2 0  9993
2 46685  53.0559 335.9508 0001627  83.8279 276.2895 15.06402659161773
STARLINK-1783           
1 46686U 20073S   23265.40208635  .00028385  00000+0  19154-2 0  9995
2 46686  53.0550 333.6322 0001695  84.7838 275.3344 15.06427739161854
STARLINK-1784           
1 46687U 20073T   23264.79625703  .00014837  00000+0  10130-2 0  9998
2 46687  53.0542 301.4012 0001460  97.1149 263.0006 15.06394795162257
STARLINK-1788           
1 46689U 20073V   23265.41779886  .00017650  00000+0  12002-2 0  9998
2 46689  53.0550 333.6095 0001699  89.4966 270.6218 15.06418834161856
STARLINK-1789           
1 46690U 20073W   23265.08652833  .00010990  00000+0  75557-3 0  9990
2 46690  53.0535 310.0976 0001568  94.1739 265.9429 15.06399333162151
STARLINK-1790           
1 46691U 20073X   23265.41733750  .00015818  00000+0  10779-2 0  9994
2 46691  53.0546 318.6119 0001538  82.2504 277.8659 15.06417162162060
STARLINK-1791           
1 46692U 20073Y   23265.40305571  .00021103  00000+0  14303-2 0  9991
2 46692  53.0540 333.6772 0001518  79.6472 280.4688 15.06427762161854
STARLINK-1792           
1 46693U 20073Z   23264.89021870  .00000534  00000+0  54742-4 0  9999
2 46693  53.0554 320.9765 0001346  92.8145 267.2999 15.06398395161503
STARLINK-1793           
1 46694U 20073AA  23264.58247452  .00015725  00000+0  10727-2 0  9993
2 46694  53.0563 302.3577 0001854  67.0001 293.1183 15.06383927161742
STARLINK-1795           
1 46696U 20073AC  23265.13167989  .00010248  00000+0  70575-3 0  9996
2 46696  53.0542 299.8956 0001423  86.0088 274.1063 15.06405186162301
STARLINK-1797           
1 46698U 20073AE  23265.12151537  .00015952  00000+0  10876-2 0  9993
2 46698  53.0539 319.9309 0001382 100.6418 259.4726 15.06393234162008
STARLINK-1799           
1 46699U 20073AF  23265.45787888  .00018484  00000+0  12556-2 0  9994
2 46699  53.0539 318.4316 0001431  79.7817 280.3333 15.06428206162033
STARLINK-1800           
1 46700U 20073AG  23265.46202269  .00029325  00000+0  19771-2 0  9995
2 46700  53.0544 333.4110 0001621  77.3078 282.8092 15.06443781161869
STARLINK-1801           
1 46701U 20073AH  23265.42839373  .00017693  00000+0  12030-2 0  9990
2 46701  53.0544 318.5626 0001567  81.9176 278.1990 15.06422357162070
STARLINK-1802           
1 46702U 20073AJ  23264.37974570  .00018796  00000+0  12779-2 0  9998
2 46702  53.0544 303.2689 0001430  88.9060 271.2093 15.06383840162205
STARLINK-1803           
1 46703U 20073AK  23265.40628008  .00012641  00000+0  86575-3 0  9995
2 46703  53.0549 318.6588 0001544  80.1908 279.9255 15.06411380162060
STARLINK-1804           
1 46704U 20073AL  23265.31966330  .00013602  00000+0  93016-3 0  9995
2 46704  53.0537 299.0511 0001363  81.2605 278.8538 15.06403611162342
STARLINK-1805           
1 46705U 20073AM  23265.46571644  .00024787  00000+0  16756-2 0  9993
2 46705  53.0543 333.3954 0001537  82.1101 278.0062 15.06433228161864
STARLINK-1807           
1 46706U 20073AN  23265.43945053  .00020181  00000+0  13694-2 0  9992
2 46706  53.0547 318.5137 0001534  91.2486 268.8678 15.06412545162074
STARLINK-1808           
1 46707U 20073AP  23265.09848765 -.00000284  00000+0 -17484-6 0  9996
2 46707  53.0535 300.0404 0001462  98.2164 261.8990 15.06382812162315
STARLINK-1810           
1 46709U 20073AR  23265.43993027  .00012064  00000+0  82715-3 0  9991
2 46709  53.0558 333.6369 0002145  49.2125 310.9050 15.06410913161851
STARLINK-1811           
1 46710U 20073AS  23265.33769578  .00021859  00000+0  13702-3 0  9996
2 46710  53.0483 312.6887 0001367  53.7912 306.3233 15.76757128162145
STARLINK-1813           
1 46711U 20073AT  23265.43205609 -.00000910  00000+0 -42216-4 0  9998
2 46711  53.0550 318.5423 0001326  98.3304 261.7836 15.06398053162051
STARLINK-1814           
1 46712U 20073AU  23265.40997955  .00018539  00000+0  12595-2 0  9997
2 46712  53.0548 318.7709 0001461  89.5454 270.5702 15.06421689162069
